GLOBALSTAR M075         
1 37192U 10054E   25083.98402374 -.00000092  00000+0  67850-4 0  9998
2 37192  51.9941  77.9132 0000319  93.8640 295.8347 12.62262633665744
GLOBALSTAR M073         
1 37193U 10054F   25083.91985671 -.00000100  00000+0  20911-4 0  9995
2 37193  52.0092 351.8686 0000693  87.8459   8.0436 12.62269264667199
GLOBALSTAR M083         
1 37739U 11033A   25083.91457801 -.00000047  00000+0  31716-3 0  9992
2 37739  51.9859 300.7311 0000909  81.1837 292.0705 12.62261223636578
GLOBALSTAR M088         
1 37740U 11033B   25084.53646677 -.00000101  00000+0  13465-4 0  9997
2 37740  51.9724 204.3949 0000717 106.1037 335.1316 12.62264605632125
GLOBALSTAR M091         
1 37741U 11033C   25083.69591341 -.00000089  00000+0  84835-4 0  9995
2 37741  51.9987 170.3619 0000689  93.2441  65.6870 12.62266363632512
GLOBALSTAR M085         
1 37742U 11033D   25083.60709977 -.00000085  00000+0  10579-3 0  9992
2 37742  51.9845 121.7449 0000494  91.7372  83.5257 12.62266752633507
GLOBALSTAR M081         
1 37743U 11033E   25084.15801425 -.00000078  00000+0  14379-3 0  9999
2 37743  51.9938 122.8020 0000605 109.5610 290.5575 12.62262082633612
GLOBALSTAR M089         
1 37744U 11033F   25084.37961172 -.00000079  00000+0  13962-3 0  9998
2 37744  51.9922  76.3687 0000315 131.8489  15.8366 12.62267781634357
